{
  "links" : {
    "next" : "https://api.nasa.gov/neo/rest/v1/feed?start_date=2012-02-16&end_date=2012-02-16&detailed=true&api_key=t0TVs3DtDT2H8Oy2Zy8m2eVrNsAVKAexjcZXUckd",
    "prev" : "https://api.nasa.gov/neo/rest/v1/feed?start_date=2012-02-14&end_date=2012-02-14&detailed=true&api_key=t0TVs3DtDT2H8Oy2Zy8m2eVrNsAVKAexjcZXUckd",
    "self" : "https://api.nasa.gov/neo/rest/v1/feed?start_date=2012-02-15&end_date=2012-02-15&detailed=true&api_key=t0TVs3DtDT2H8Oy2Zy8m2eVrNsAVKAexjcZXUckd"
  },
  "element_count" : 7,
  "near_earth_objects" : {
    "2012-02-15" : [ {
      "links" : {
        "self" : "https://api.nasa.gov/neo/rest/v1/neo/3703780?api_key=t0TVs3DtDT2H8Oy2Zy8m2eVrNsAVKAexjcZXUckd"
      },
      "neo_reference_id" : "3703780",
      "name" : "(2015 AC45)",
      "nasa_jpl_url" : "http://ssd.jpl.nasa.gov/sbdb.cgi?sstr=3703780",
      "absolute_magnitude_h" : 21.5,
      "estimated_diameter" : {
        "kilometers" : {
          "estimated_diameter_min" : 0.1332155667,
          "estimated_diameter_max" : 0.2978790628
        },
        "meters" : {
          "estimated_diameter_min" : 133.2155666981,
          "estimated_diameter_max" : 297.8790627982
        },
        "miles" : {
          "estimated_diameter_min" : 0.0827762899,
          "estimated_diameter_max" : 0.1850934111
        },
        "feet" : {
          "estimated_diameter_min" : 437.0589598459,
          "estimated_diameter_max" : 977.2935443908
        }
      },
      "is_potentially_hazardous_asteroid" : false,
      "close_approach_data" : [ {
        "close_approach_date" : "2012-02-15",
        "epoch_date_close_approach" : 1329292800000,
        "relative_velocity" : {
          "kilometers_per_second" : "13.191434005",
          "kilometers_per_hour" : "47489.1624178664",
          "miles_per_hour" : "29507.9187257015"
        },
        "miss_distance" : {
          "astronomical" : "0.3847999663",
          "lunar" : "149.6871795654",
          "kilometers" : "57565256",
          "miles" : "35769392"
        },
        "orbiting_body" : "Earth"
      } ],
      "orbital_data" : {
        "orbit_id" : "25",
        "orbit_determination_date" : "2017-04-06 08:36:25",
        "orbit_uncertainty" : "4",
        "minimum_orbit_intersection" : ".204134",
        "jupiter_tisserand_invariant" : "4.872",
        "epoch_osculation" : "2458000.5",
        "eccentricity" : ".1879845683014811",
        "semi_major_axis" : "1.328465074993513",
        "inclination" : "15.75047983526169",
        "ascending_node_longitude" : "292.8617101907088",
        "orbital_period" : "559.2727238515149",
        "perihelion_distance" : "1.078734141367263",
        "perihelion_argument" : "257.0655550729945",
        "aphelion_distance" : "1.578196008619764",
        "perihelion_time" : "2458237.494908081745",
        "mean_anomaly" : "207.4480101195137",
        "mean_motion" : ".6436931118700129",
        "equinox" : "J2000"
      }
    } ]
  }
}